start=new Date('2022-03-02T00:00:00.000Z').valueOf();
sats=[{"ARG_OF_PERICENTER":"65.7670","CENTER_NAME":"EARTH","OBJECT_NAME":"STARLINK-1026","MEAN_MOTION":"15.06397338","RA_OF_ASC_NODE":"300.2691","LAUNCH_DATE":"2019-11-11","FILE":"3338635","BSTAR":"0.00002198400000","MEAN_ANOMALY":"294.3493","SITE":"AFETR","GP_ID":"197540009","OBJECT_TYPE":"PAYLOAD","APOAPSIS":"548.378","DECAY_DATE":null,"RCS_SIZE":"LARGE","MEAN_ELEMENT_THEORY":"SGP4","SEMIMAJOR_AXIS":"6925.357","TIME_SYSTEM":"UTC","INCLINATION":"53.0541","REV_AT_EPOCH":"12736","CLASSIFICATION_TYPE":"U","OBJECT_ID":"2019-074U","TLE_LINE1":"1 44731U 19074U   22060.89868283  .00000046  00000-0  21984-4 0  9990","COUNTRY_CODE":"US","EPHEMERIS_TYPE":"0","PERIAPSIS":"546.066","MEAN_MOTION_DDOT":"0.0000000000000","TLE_LINE2":"2 44731  53.0541 300.2691 0001669  65.7670 294.3493 15.06397338127361","ELEMENT_SET_NO":"999","EPOCH":"2022-03-01T21:34:06.196512","MEAN_MOTION_DOT":"0.00000046","NORAD_CAT_ID":"44731","PERIOD":"95.592","ECCENTRICITY":"0.00016690","REF_FRAME":"TEME"},{"NORAD_CAT_ID":"44732","REF_FRAME":"TEME","PERIOD":"95.593","ECCENTRICITY":"0.00018120","ELEMENT_SET_NO":"999","TLE_LINE2":"2 44732  53.0550 320.3317 0001812  59.9558 300.1611 15.06393808127085","EPOCH":"2022-03-01T21:15:31.509504","MEAN_MOTION_DOT":"0.00001034","TLE_LINE1":"1 44732U 19074V   22060.88578136  .00001034  00000-0  88320-4 0  9990","EPHEMERIS_TYPE":"0","COUNTRY_CODE":"US","PERIAPSIS":"545.978","MEAN_MOTION_DDOT":"0.0000000000000","INCLINATION":"53.0550","REV_AT_EPOCH":"12708","SEMIMAJOR_AXIS":"6925.368","TIME_SYSTEM":"UTC","OBJECT_ID":"2019-074V","CLASSIFICATION_TYPE":"U","RCS_SIZE":"LARGE","DECAY_DATE":null,"APOAPSIS":"548.487","MEAN_ELEMENT_THEORY":"SGP4","FILE":"3338635","BSTAR":"0.00008832000000","OBJECT_TYPE":"PAYLOAD","MEAN_ANOMALY":"300.1611","SITE":"AFETR","GP_ID":"197540261","RA_OF_ASC_NODE":"320.3317","LAUNCH_DATE":"2019-11-11","ARG_OF_PERICENTER":"59.9558","OBJECT_NAME":"STARLINK-1027","CENTER_NAME":"EARTH","MEAN_MOTION":"15.06393808"},{"ELEMENT_SET_NO":"999","TLE_LINE2":"2 44733  53.0530 300.3505 0001366  80.5036 279.6107 15.06398890127363","MEAN_MOTION_DOT":"-0.00000363","EPOCH":"2022-03-01T21:12:52.085952","NORAD_CAT_ID":"44733","REF_FRAME":"TEME","PERIOD":"95.592","ECCENTRICITY":"0.00013660","REV_AT_EPOCH":"12736","INCLINATION":"53.0530","TIME_SYSTEM":"UTC","SEMIMAJOR_AXIS":"6925.352","OBJECT_ID":"2019-074W","CLASSIFICATION_TYPE":"U","PERIAPSIS":"546.271","EPHEMERIS_TYPE":"0","TLE_LINE1":"1 44733U 19074W   22060.88393618 -.00000363  00000-0 -54952-5 0  9992","COUNTRY_CODE":"US","MEAN_MOTION_DDOT":"0.0000000000000","BSTAR":"-0.00000549520000","FILE":"3338635","OBJECT_TYPE":"PAYLOAD","GP_ID":"197540512","SITE":"AFETR","MEAN_ANOMALY":"279.6107","DECAY_DATE":null,"RCS_SIZE":"LARGE","APOAPSIS":"548.163","MEAN_ELEMENT_THEORY":"SGP4","OBJECT_NAME":"STARLINK-1028","CENTER_NAME":"EARTH","ARG_OF_PERICENTER":"80.5036","MEAN_MOTION":"15.06398890","RA_OF_ASC_NODE":"300.3505","LAUNCH_DATE":"2019-11-11"},{"INCLINATION":"53.0556","REV_AT_EPOCH":"12845","SEMIMAJOR_AXIS":"6925.349","TIME_SYSTEM":"UTC","OBJECT_ID":"2019-074X","CLASSIFICATION_TYPE":"U","EPHEMERIS_TYPE":"0","TLE_LINE1":"1 44734U 19074X   22060.83233602  .00000768  00000-0  70462-4 0  9994","COUNTRY_CODE":"US","PERIAPSIS":"546.095","MEAN_MOTION_DDOT":"0.0000000000000","ELEMENT_SET_NO":"999","TLE_LINE2":"2 44734  53.0556 220.5721 0001615  69.6951 290.4212 15.06399984128450","EPOCH":"2022-03-01T19:58:33.832128","MEAN_MOTION_DOT":"0.00000768","NORAD_CAT_ID":"44734","REF_FRAME":"TEME","PERIOD":"95.592","ECCENTRICITY":"0.00016150","ARG_OF_PERICENTER":"69.6951","OBJECT_NAME":"STARLINK-1029","CENTER_NAME":"EARTH","MEAN_MOTION":"15.06399984","RA_OF_ASC_NODE":"220.5721","LAUNCH_DATE":"2019-11-11","FILE":"3338635","BSTAR":"0.00007046200000","OBJECT_TYPE":"PAYLOAD","MEAN_ANOMALY":"290.4212","SITE":"AFETR","GP_ID":"197539260","RCS_SIZE":"LARGE","DECAY_DATE":null,"APOAPSIS":"548.332","MEAN_ELEMENT_THEORY":"SGP4"},{"REF_FRAME":"TEME","PERIOD":"95.593","ECCENTRICITY":"0.00017830","NORAD_CAT_ID":"44735","MEAN_MOTION_DOT":"-0.00000199","EPOCH":"2022-03-01T21:26:08.192832","ELEMENT_SET_NO":"999","TLE_LINE2":"2 44735  53.0534 320.3006 0001783  59.9495 300.1670 15.06391892127088","MEAN_MOTION_DDOT":"0.0000000000000","PERIAPSIS":"546.004","COUNTRY_CODE":"US","TLE_LINE1":"1 44735U 19074Y   22060.89315038 -.00000199  00000-0  55517-5 0  9999","EPHEMERIS_TYPE":"0","OBJECT_ID":"2019-074Y","CLASSIFICATION_TYPE":"U","INCLINATION":"53.0534","REV_AT_EPOCH":"12708","TIME_SYSTEM":"UTC","SEMIMAJOR_AXIS":"6925.373","MEAN_ELEMENT_THEORY":"SGP4","RCS_SIZE":"LARGE","DECAY_DATE":null,"APOAPSIS":"548.473","OBJECT_TYPE":"PAYLOAD","GP_ID":"197539510","SITE":"AFETR","MEAN_ANOMALY":"300.1670","BSTAR":"0.00000555170000","FILE":"3338635","LAUNCH_DATE":"2019-11-11","RA_OF_ASC_NODE":"320.3006","MEAN_MOTION":"15.06391892","OBJECT_NAME":"STARLINK-1030","CENTER_NAME":"EARTH","ARG_OF_PERICENTER":"59.9495"},{"MEAN_MOTION":"15.06394983","CENTER_NAME":"EARTH","OBJECT_NAME":"STARLINK-1031","ARG_OF_PERICENTER":"62.1438","LAUNCH_DATE":"2019-11-11","RA_OF_ASC_NODE":"320.2453","OBJECT_TYPE":"PAYLOAD","GP_ID":"197540761","SITE":"AFETR","MEAN_ANOMALY":"297.9740","BSTAR":"0.00001962500000","FILE":"3338635","MEAN_ELEMENT_THEORY":"SGP4","DECAY_DATE":null,"RCS_SIZE":"LARGE","APOAPSIS":"548.520","OBJECT_ID":"2019-074Z","CLASSIFICATION_TYPE":"U","INCLINATION":"53.0559","REV_AT_EPOCH":"12709","TIME_SYSTEM":"UTC","SEMIMAJOR_AXIS":"6925.364","MEAN_MOTION_DDOT":"0.0000000000000","PERIAPSIS":"545.938","EPHEMERIS_TYPE":"0","TLE_LINE1":"1 44736U 19074Z   22060.90789713  .00000011  00000-0  19625-4 0  9998","COUNTRY_CODE":"US","MEAN_MOTION_DOT":"0.00000011","EPOCH":"2022-03-01T21:47:22.312032","ELEMENT_SET_NO":"999","TLE_LINE2":"2 44736  53.0559 320.2453 0001864  62.1438 297.9740 15.06394983127090","REF_FRAME":"TEME","PERIOD":"95.592","ECCENTRICITY":"0.00018640","NORAD_CAT_ID":"44736"},{"DECAY_DATE":null,"RCS_SIZE":"LARGE","APOAPSIS":"548.478","MEAN_ELEMENT_THEORY":"SGP4","BSTAR":"0.00009659000000","FILE":"3338635","OBJECT_TYPE":"PAYLOAD","GP_ID":"197541012","MEAN_ANOMALY":"299.3625","SITE":"AFETR","RA_OF_ASC_NODE":"320.1973","LAUNCH_DATE":"2019-11-11","OBJECT_NAME":"STARLINK-1032","CENTER_NAME":"EARTH","ARG_OF_PERICENTER":"60.7546","MEAN_MOTION":"15.06398822","NORAD_CAT_ID":"44737","REF_FRAME":"TEME","PERIOD":"95.592","ECCENTRICITY":"0.00018210","ELEMENT_SET_NO":"999","TLE_LINE2":"2 44737  53.0550 320.1973 0001821  60.7546 299.3625 15.06398822127099","MEAN_MOTION_DOT":"0.00001157","EPOCH":"2022-03-01T22:03:17.615232","PERIAPSIS":"545.956","TLE_LINE1":"1 44737U 19074AA  22060.91895388  .00001157  00000-0  96590-4 0  9994","EPHEMERIS_TYPE":"0","COUNTRY_CODE":"US","MEAN_MOTION_DDOT":"0.0000000000000","REV_AT_EPOCH":"12709","INCLINATION":"53.0550","TIME_SYSTEM":"UTC","SEMIMAJOR_AXIS":"6925.352","OBJECT_ID":"2019-074AA","CLASSIFICATION_TYPE":"U"},{"EPOCH":"2022-03-01T21:42:03.733632","MEAN_MOTION_DOT":"0.00000811","ELEMENT_SET_NO":"999","TLE_LINE2":"2 44738  53.0571 320.2499 0001742  67.3455 292.7718 15.06398357127083","REF_FRAME":"TEME","PERIOD":"95.592","ECCENTRICITY":"0.00017420","NORAD_CAT_ID":"44738","OBJECT_ID":"2019-074AB","CLASSIFICATION_TYPE":"U","REV_AT_EPOCH":"12708","INCLINATION":"53.0571","SEMIMAJOR_AXIS":"6925.354","TIME_SYSTEM":"UTC","MEAN_MOTION_DDOT":"0.0000000000000","EPHEMERIS_TYPE":"0","TLE_LINE1":"1 44738U 19074AB  22060.90420988  .00000811  00000-0  73379-4 0  9990","COUNTRY_CODE":"US","PERIAPSIS":"546.012","OBJECT_TYPE":"PAYLOAD","SITE":"AFETR","MEAN_ANOMALY":"292.7718","GP_ID":"197539760","FILE":"3338635","BSTAR":"0.00007337900000","MEAN_ELEMENT_THEORY":"SGP4","DECAY_DATE":null,"RCS_SIZE":"LARGE","APOAPSIS":"548.425","MEAN_MOTION":"15.06398357","ARG_OF_PERICENTER":"67.3455","OBJECT_NAME":"STARLINK-1033","CENTER_NAME":"EARTH","LAUNCH_DATE":"2019-11-11","RA_OF_ASC_NODE":"320.2499"},{"CLASSIFICATION_TYPE":"U","OBJECT_ID":"2019-074AC","SEMIMAJOR_AXIS":"6914.098","TIME_SYSTEM":"UTC","REV_AT_EPOCH":"12712","INCLINATION":"52.9983","MEAN_MOTION_DDOT":"0.0000000000000","EPHEMERIS_TYPE":"0","TLE_LINE1":"1 44739U 19074AC  22060.89534022  .00009900  00000-0  61803-3 0  9990","COUNTRY_CODE":"US","PERIAPSIS":"534.772","EPOCH":"2022-03-01T21:29:17.395008","MEAN_MOTION_DOT":"0.00009900","TLE_LINE2":"2 44739  52.9983 314.9304 0001723 109.6544 250.4632 15.10078238127121","ELEMENT_SET_NO":"999","PERIOD":"95.359","ECCENTRICITY":"0.00017230","REF_FRAME":"TEME","NORAD_CAT_ID":"44739","MEAN_MOTION":"15.10078238","ARG_OF_PERICENTER":"109.6544","OBJECT_NAME":"STARLINK-1034","CENTER_NAME":"EARTH","LAUNCH_DATE":"2019-11-11","RA_OF_ASC_NODE":"314.9304","SITE":"AFETR","MEAN_ANOMALY":"250.4632","GP_ID":"197540010","OBJECT_TYPE":"PAYLOAD","FILE":"3338635","BSTAR":"0.00061803000000","MEAN_ELEMENT_THEORY":"SGP4","APOAPSIS":"537.154","RCS_SIZE":"LARGE","DECAY_DATE":null},{"MEAN_MOTION_DDOT":"0.0000000000000","PERIAPSIS":"545.948","EPHEMERIS_TYPE":"0","TLE_LINE1":"1 44740U 19074AD  22060.91526785  .00000398  00000-0  45591-4 0  9991","COUNTRY_CODE":"US","OBJECT_ID":"2019-074AD","CLASSIFICATION_TYPE":"U","REV_AT_EPOCH":"12709","INCLINATION":"53.0550","TIME_SYSTEM":"UTC","SEMIMAJOR_AXIS":"6925.345","REF_FRAME":"TEME","PERIOD":"95.592","ECCENTRICITY":"0.00018220","NORAD_CAT_ID":"44740","MEAN_MOTION_DOT":"0.00000398","EPOCH":"2022-03-01T21:57:59.142240","ELEMENT_SET_NO":"999","TLE_LINE2":"2 44740  53.0550 320.2041 0001822  58.0435 302.0731 15.06401125127099","LAUNCH_DATE":"2019-11-11","RA_OF_ASC_NODE":"320.2041","MEAN_MOTION":"15.06401125","OBJECT_NAME":"STARLINK-1035","CENTER_NAME":"EARTH","ARG_OF_PERICENTER":"58.0435","MEAN_ELEMENT_THEORY":"SGP4","DECAY_DATE":null,"RCS_SIZE":"LARGE","APOAPSIS":"548.472","OBJECT_TYPE":"PAYLOAD","GP_ID":"197540262","SITE":"AFETR","MEAN_ANOMALY":"302.0731","BSTAR":"0.00004559100000","FILE":"3338635"}];
